NORAD_CAT_ID,OBJECT_NAME,OBJECT_TYPE,EPOCH,MEAN_MOTION,ECCENTRICITY,INCLINATION,RA_OF_ASC_NODE,ARG_OF_PERICENTER,MEAN_ANOMALY,BSTAR,MEAN_MOTION_DOT,MEAN_MOTION_DDOT,TLE_LINE0,TLE_LINE1,TLE_LINE2,SEMIMAJOR_AXIS,PERIOD,APOGEE,PERIGEE,DECAYED
51733.0,STARLINK-3525,PAYLOAD,2022-06-22 14:00:01,15.08833396,0.0001988,53.216,286.9024,45.0228,204.0625,-0.00036389,-6.074e-05,0.0,0 STARLINK-3525,1 51733U 22016V   22173.58334491 -.00006074  00000-0 -36389-3 0  9993,2 51733  53.2160 286.9024 0001988  45.0228 204.0625 15.08833396  1305,6917.901,95.438,541.141,538.39,0.0
51733.0,STARLINK-3525,PAYLOAD,2022-06-22 16:00:00,15.08822913,0.0002033,53.2161,286.5286,44.3655,297.6186,0.0012706,0.00019982,0.0,0 STARLINK-3525,1 51733U 22016V   22173.66667824  .00019982  00000-0  12706-2 0  9997,2 51733  53.2161 286.5286 0002033  44.3655 297.6186 15.08822913 19919,6917.933000000001,95.439,541.2040000000002,538.391,0.0
51733.0,STARLINK-3525,PAYLOAD,2022-06-22 22:00:00,15.08857295,0.0001953,53.2157,285.4056,43.5483,217.1232,-0.0012706,-0.00020463,0.0,0 STARLINK-3525,1 51733U 22016V   22173.91667824 -.00020463  00000-0 -12706-2 0  9993,2 51733  53.2157 285.4056 0001953  43.5483 217.1232 15.08857295  1301,6917.828,95.436,541.044,538.341,0.0
51733.0,STARLINK-3525,PAYLOAD,2022-06-23 14:00:01,15.08852347,0.0001916,53.2159,282.4131,43.7991,240.0956,-0.0019649,-0.00031435,0.0,0 STARLINK-3525,1 51733U 22016V   22174.58334491 -.00031435  00000-0 -19649-2 0  9992,2 51733  53.2159 282.4131 0001916  43.7991 240.0956 15.08852347  1300,6917.843000000003,95.437,541.033,538.382,0.0
51733.0,STARLINK-3525,PAYLOAD,2022-06-23 22:00:00,15.08861585,0.000186,53.2156,280.9162,42.4754,253.0127,-0.003374,-0.00053618,0.0,0 STARLINK-3525,1 51733U 22016V   22174.91667824 -.00053618  00000-0 -33740-2 0  9993,2 51733  53.2156 280.9162 0001860  42.4754 253.0127 15.08861585 20102,6917.814,95.436,540.966,538.393,0.0
51733.0,STARLINK-3525,PAYLOAD,2022-06-24 14:00:01,15.088421300000002,0.0001822,53.2157,277.92400000000004,41.8335,276.863,-0.0017926,-0.00028706,0.0,0 STARLINK-3525,1 51733U 22016V   22175.58334491 -.00028706  00000-0 -17926-2 0  9996,2 51733  53.2157 277.9240 0001822  41.8335 276.8630 15.08842130 20200,6917.874,95.437,540.999,538.4780000000002,0.0
51733.0,STARLINK-3525,PAYLOAD,2022-06-24 22:00:01,15.08846928,0.0001751999999999,53.2153,276.4269,39.8833,290.457,-0.0019522,-0.00031229,0.0,0 STARLINK-3525,1 51733U 22016V   22175.91668981 -.00031229  00000-0 -19522-2 0  9995,2 51733  53.2153 276.4269 0001752  39.8833 290.4570 15.08846928  1307,6917.859,95.437,540.936,538.512,0.0
51733.0,STARLINK-3525,PAYLOAD,2022-06-25 06:00:00,15.08822156,0.0001622,53.2155,274.9295,46.4012,295.4617,0.0020897,0.0003311,0.0,0 STARLINK-3525,1 51733U 22016V   22176.25001157  .00033110  00000-0  20897-2 0  9995,2 51733  53.2155 274.9295 0001622  46.4012 295.4617 15.08822156 20305,6917.935,95.439,540.922,538.678,0.0
51733.0,STARLINK-3525,PAYLOAD,2022-06-25 14:00:01,15.08837065,0.0001838,53.2154,273.435,41.682,311.7732,0.00024626,3.633e-05,0.0,0 STARLINK-3525,1 51733U 22016V   22176.58334491  .00003633  00000-0  24626-3 0  9993,2 51733  53.2154 273.4350 0001838  41.6820 311.7732 15.08837065  1307,6917.889,95.438,541.026,538.4830000000002,0.0
51733.0,STARLINK-3525,PAYLOAD,2022-06-25 22:00:00,15.08877032,0.0001815,53.2151,271.9377,41.3492,323.6986,-0.0046526,-0.00073653,0.0,0 STARLINK-3525,1 51733U 22016V   22176.91667824 -.00073653  00000-0 -46526-2 0  9992,2 51733  53.2151 271.9377 0001815  41.3492 323.6986 15.08877032 20406,6917.767,95.435,540.888,538.377,0.0
51733.0,STARLINK-3525,PAYLOAD,2022-06-26 14:00:01,15.08837615,0.0001968,53.2153,268.9458,43.407,344.9087,0.00060564,9.363e-05,0.0,0 STARLINK-3525,1 51733U 22016V   22177.58335648  .00009363  00000-0  60564-3 0  9996,2 51733  53.2153 268.9458 0001968  43.4070 344.9087 15.08837615 20511,6917.888000000001,95.438,541.114,538.391,0.0
51733.0,STARLINK-3525,PAYLOAD,2022-06-26 22:00:00,15.08863885,0.0001856,53.2151,267.4484,41.5917,358.2521,-0.0042077,-0.00066679,0.0,0 STARLINK-3525,1 51733U 22016V   22177.91667824 -.00066679  00000-0 -42077-2 0  9990,2 51733  53.2151 267.4484 0001856  41.5917 358.2521 15.08863885  1302,6917.807,95.436,540.956,538.388,0.0
51733.0,STARLINK-3525,PAYLOAD,2022-06-27 06:00:00,15.08823168,0.0001758,53.2154,265.9513,45.6729,5.7629,0.0016625999999999,0.00026259,0.0,0 STARLINK-3525,1 51733U 22016V   22178.25001157  .00026259  00000-0  16626-2 0  9998,2 51733  53.2154 265.9513 0001758  45.6729   5.7629 15.08823168 20616,6917.932,95.439,541.013,538.581,0.0
51733.0,STARLINK-3525,PAYLOAD,2022-06-27 14:00:01,15.08825465,0.0001985,53.2154,264.4568,41.4415,21.5787,0.00086048,0.00013428,0.0,0 STARLINK-3525,1 51733U 22016V   22178.58334491  .00013428  00000-0  86048-3 0  9994,2 51733  53.2154 264.4568 0001985  41.4415  21.5787 15.08825465  1306,6917.925,95.438,541.163,538.4169999999998,0.0
51733.0,STARLINK-3525,PAYLOAD,2022-06-27 22:00:00,15.08858809,0.000194,53.2154,262.9593,42.5787,32.0258,-0.0042166,-0.00066809,0.0,0 STARLINK-3525,1 51733U 22016V   22178.91667824 -.00066809  00000-0 -42166-2 0  9995,2 51733  53.2154 262.9593 0001940  42.5787  32.0258 15.08858809 20716,6917.823,95.436,541.03,538.346,0.0
51733.0,STARLINK-3525,PAYLOAD,2022-06-28 14:00:01,15.08809963,0.0002114,53.2156,259.9679,43.6475,54.1123,0.0011496,0.0001804,0.0,0 STARLINK-3525,1 51733U 22016V   22179.58334491  .00018040  00000-0  11496-2 0  9994,2 51733  53.2156 259.9679 0002114  43.6475  54.1123 15.08809963 20813,6917.972,95.439,541.3,538.375,0.0
51733.0,STARLINK-3525,PAYLOAD,2022-06-28 22:00:00,15.08837273,0.0002006,53.2155,258.4704,44.7168,64.609,-0.0015581,-0.00024998,0.0,0 STARLINK-3525,1 51733U 22016V   22179.91667824 -.00024998  00000-0 -15581-2 0  9990,2 51733  53.2155 258.4704 0002006  44.7168  64.6090 15.08837273  1303,6917.889,95.438,541.141,538.366,0.0
51733.0,STARLINK-3525,PAYLOAD,2022-06-29 14:00:01,15.08818565,0.0002146,53.2156,255.479,43.6349,88.8597,0.0015243,0.00024041,0.0,0 STARLINK-3525,1 51733U 22016V   22180.58334491  .00024041  00000-0  15243-2 0  9998,2 51733  53.2156 255.4790 0002146  43.6349  88.8597 15.08818565 20966,6917.946,95.439,541.295,538.326,0.0
51733.0,STARLINK-3525,PAYLOAD,2022-06-29 22:00:00,15.08845747,0.0002006,53.2155,253.9814,45.6523,98.4233,-0.0013492,-0.000217,0.0,0 STARLINK-3525,1 51733U 22016V   22180.91667824 -.00021700  00000-0 -13492-2 0  9999,2 51733  53.2155 253.9814 0002006  45.6523  98.4233 15.08845747  1309,6917.863,95.437,541.116,538.34,0.0
51733.0,STARLINK-3525,PAYLOAD,2022-06-30 14:00:01,15.08825625,0.0002143,53.2153,250.99,43.8415,123.43,0.0019004,0.00030075,0.0,0 STARLINK-3525,1 51733U 22016V   22181.58334491  .00030075  00000-0  19004-2 0  9992,2 51733  53.2153 250.9900 0002143  43.8415 123.4300 15.08825625  1309,6917.924,95.438,541.2719999999998,538.307,0.0
51733.0,STARLINK-3525,PAYLOAD,2022-06-30 22:00:00,15.08850359,0.0001978,53.215,249.4922,46.5884,132.2748,-0.0010620999999999,-0.00017157,0.0,0 STARLINK-3525,1 51733U 22016V   22181.91667824 -.00017157  00000-0 -10621-2 0  9992,2 51733  53.2150 249.4922 0001978  46.5884 132.2748 15.08850359  1304,6917.849,95.437,541.082,538.345,0.0
51733.0,STARLINK-3525,PAYLOAD,2022-07-01 06:00:00,15.0885816,0.0001955,53.2152,247.9958,50.0627,140.3978,-0.00057686,-9.462e-05,0.0,0 STARLINK-3525,1 51733U 22016V   22182.25001157 -.00009462  00000-0 -57686-3 0  9994,2 51733  53.2152 247.9958 0001955  50.0627 140.3978 15.08858160 21213,6917.825,95.436,541.0419999999998,538.337,0.0
51733.0,STARLINK-3525,PAYLOAD,2022-07-01 14:00:01,15.08829947,0.000213,53.2155,246.5009,44.5477,157.5301,0.0022301,0.00035373,0.0,0 STARLINK-3525,1 51733U 22016V   22182.58334491  .00035373  00000-0  22301-2 0  9993,2 51733  53.2155 246.5009 0002130  44.5477 157.5301 15.08829947  1304,6917.911,95.438,541.25,538.303,0.0
51733.0,STARLINK-3525,PAYLOAD,2022-07-01 22:00:00,15.08852948,0.0001952,53.2158,245.0029,47.6785,166.0002,-0.00057173,-9.379e-05,0.0,0 STARLINK-3525,1 51733U 22016V   22182.91667824 -.00009379  00000-0 -57173-3 0  9994,2 51733  53.2158 245.0029 0001952  47.6785 166.0002 15.08852948  1300,6917.840999999999,95.437,541.056,538.355,0.0
51733.0,STARLINK-3525,PAYLOAD,2022-07-02 14:00:01,15.08807563,0.0002054,53.216,242.0118,43.2179,193.6823,0.0026073,0.00041415,0.0,0 STARLINK-3525,1 51733U 22016V   22183.58334491  .00041415  00000-0  26073-2 0  9998,2 51733  53.2160 242.0118 0002054  43.2179 193.6823 15.08807563 21416,6917.98,95.44,541.265,538.424,0.0
51733.0,STARLINK-3525,PAYLOAD,2022-07-02 22:00:00,15.08833783,0.0001893,53.2158,240.5137,46.4655,202.0197,0.00019191,2.767e-05,0.0,0 STARLINK-3525,1 51733U 22016V   22183.91667824  .00002767  00000-0  19191-3 0  9995,2 51733  53.2158 240.5137 0001893  46.4655 202.0197 15.08833783  1309,6917.899,95.438,541.0740000000002,538.455,0.0
51733.0,STARLINK-3525,PAYLOAD,2022-07-03 14:00:01,15.08828256,0.0002062,53.2155,237.5227,43.2127,228.4635,0.0014144,0.00022287,0.0,0 STARLINK-3525,1 51733U 22016V   22184.58334491  .00022287  00000-0  14144-2 0  9991,2 51733  53.2155 237.5227 0002062  43.2127 228.4635 15.08828256 21568,6917.916,95.438,541.2080000000002,538.355,0.0
51733.0,STARLINK-3525,PAYLOAD,2022-07-03 22:00:00,15.08817744,0.0001878,53.2156,236.0244,44.9793,238.2937,-0.0003839,-6.389e-05,0.0,0 STARLINK-3525,1 51733U 22016V   22184.91667824 -.00006389  00000-0 -38390-3 0  9994,2 51733  53.2156 236.0244 0001878  44.9793 238.2937 15.08817744  1307,6917.948,95.439,541.113,538.514,0.0
51733.0,STARLINK-3525,PAYLOAD,2022-07-04 06:00:00,15.08833901,0.0001907,53.2156,234.5284,46.7414,248.0936,-0.0013658,-0.00021956,0.0,0 STARLINK-3525,1 51733U 22016V   22185.25001157 -.00021956  00000-0 -13658-2 0  9999,2 51733  53.2156 234.5284 0001907  46.7414 248.0936 15.08833901 21669,6917.899,95.438,541.0830000000002,538.445,0.0
